STRIX-1                 
1 53815U 22113A   26200.27269953  .00014156  00000+0  34371-3 0  9991
2 53815  97.4469 262.8969 0005627 121.9586 238.2208 15.41116683212384
STRIX-3                 
1 59224U 24047A   26200.24594654  .00004075  00000+0  19311-3 0  9991
2 59224  97.6642 176.4082 0011550 319.5753  40.4622 15.19847523129613
STRIX-4                 
1 60352U 24137A   26200.14524677  .00011128  00000+0  34423-3 0  9990
2 60352  43.0149 103.0645 0016652 158.9904 201.1637 15.33397414108924
STRIX-2                 
1 62406U 24248A   26200.29857744  .00003038  00000+0  19476-3 0  9997
2 62406  97.6301 155.7617 0014027 220.4079 139.6109 15.09213251 86435
STRIX-5                 
1 65971U 25229A   26200.10048357  .00001908  00000+0  14518-3 0  9995
2 65971  41.9278 110.4059 0038046 262.2672  97.3833 15.04605650 41784
STRIX-6                 
1 68291U 26056A   26200.03239411  .00000899  00000+0  91785-4 0  9997
2 68291  50.2822 199.2380 0016626   5.8989 354.2154 15.00336422 18053
STRIX-7                 
1 69177U 26112A   26200.23974863  .00001769  00000+0  15111-3 0  9998
2 69177  44.9096  24.0781 0025049 229.6716 130.1967 15.01624749  8698
STRIX-8                 
1 69701U 26146A   26200.26863989  .00002261  00000+0  17232-3 0  9991
2 69701  41.9907 350.5278 0006616  51.9690 308.1734 15.04454253  3398
