{"fetched_at":"2026-07-19T17:31:58.947Z","source":"https://celestrak.org/NORAD/elements/gp.php?NAME=STRIX&FORMAT=JSON","constellation":"synspective","records":[{"OBJECT_NAME":"STRIX-1","OBJECT_ID":"2022-113A","EPOCH":"2026-07-19T06:32:41.239392","CLASSIFICATION_TYPE":"U","MEAN_MOTION":15.41116683,"ECCENTRICITY":0.00056272,"INCLINATION":97.4469,"RA_OF_ASC_NODE":262.8969,"ARG_OF_PERICENTER":121.9586,"MEAN_ANOMALY":238.2208,"EPHEMERIS_TYPE":0,"NORAD_CAT_ID":53815,"ELEMENT_SET_NO":999,"REV_AT_EPOCH":21238,"BSTAR":0.00034370577,"MEAN_MOTION_DOT":0.00014156,"MEAN_MOTION_DDOT":0},{"OBJECT_NAME":"STRIX-3","OBJECT_ID":"2024-047A","EPOCH":"2026-07-19T05:54:09.781056","CLASSIFICATION_TYPE":"U","MEAN_MOTION":15.19847523,"ECCENTRICITY":0.00115503,"INCLINATION":97.6642,"RA_OF_ASC_NODE":176.4082,"ARG_OF_PERICENTER":319.5753,"MEAN_ANOMALY":40.4622,"EPHEMERIS_TYPE":0,"NORAD_CAT_ID":59224,"ELEMENT_SET_NO":999,"REV_AT_EPOCH":12961,"BSTAR":0.00019311111,"MEAN_MOTION_DOT":0.00004075,"MEAN_MOTION_DDOT":0},{"OBJECT_NAME":"STRIX-4","OBJECT_ID":"2024-137A","EPOCH":"2026-07-19T03:29:09.320928","CLASSIFICATION_TYPE":"U","MEAN_MOTION":15.33397414,"ECCENTRICITY":0.00166522,"INCLINATION":43.0149,"RA_OF_ASC_NODE":103.0645,"ARG_OF_PERICENTER":158.9904,"MEAN_ANOMALY":201.1637,"EPHEMERIS_TYPE":0,"NORAD_CAT_ID":60352,"ELEMENT_SET_NO":999,"REV_AT_EPOCH":10892,"BSTAR":0.00034423125,"MEAN_MOTION_DOT":0.00011128,"MEAN_MOTION_DDOT":0},{"OBJECT_NAME":"STRIX-2","OBJECT_ID":"2024-248A","EPOCH":"2026-07-19T07:09:57.090816","CLASSIFICATION_TYPE":"U","MEAN_MOTION":15.09213251,"ECCENTRICITY":0.00140277,"INCLINATION":97.6301,"RA_OF_ASC_NODE":155.7617,"ARG_OF_PERICENTER":220.4079,"MEAN_ANOMALY":139.6109,"EPHEMERIS_TYPE":0,"NORAD_CAT_ID":62406,"ELEMENT_SET_NO":999,"REV_AT_EPOCH":8643,"BSTAR":0.00019475936,"MEAN_MOTION_DOT":0.00003038,"MEAN_MOTION_DDOT":0},{"OBJECT_NAME":"STRIX-5","OBJECT_ID":"2025-229A","EPOCH":"2026-07-19T02:24:41.780448","CLASSIFICATION_TYPE":"U","MEAN_MOTION":15.0460565,"ECCENTRICITY":0.00380469,"INCLINATION":41.9278,"RA_OF_ASC_NODE":110.4059,"ARG_OF_PERICENTER":262.2672,"MEAN_ANOMALY":97.3833,"EPHEMERIS_TYPE":0,"NORAD_CAT_ID":65971,"ELEMENT_SET_NO":999,"REV_AT_EPOCH":4178,"BSTAR":0.00014518395,"MEAN_MOTION_DOT":0.00001908,"MEAN_MOTION_DDOT":0},{"OBJECT_NAME":"STRIX-6","OBJECT_ID":"2026-056A","EPOCH":"2026-07-19T00:46:38.851104","CLASSIFICATION_TYPE":"U","MEAN_MOTION":15.00336422,"ECCENTRICITY":0.0016626,"INCLINATION":50.2822,"RA_OF_ASC_NODE":199.238,"ARG_OF_PERICENTER":5.8989,"MEAN_ANOMALY":354.2154,"EPHEMERIS_TYPE":0,"NORAD_CAT_ID":68291,"ELEMENT_SET_NO":999,"REV_AT_EPOCH":1805,"BSTAR":0.000091785113,"MEAN_MOTION_DOT":0.00000899,"MEAN_MOTION_DDOT":0},{"OBJECT_NAME":"STRIX-7","OBJECT_ID":"2026-112A","EPOCH":"2026-07-19T05:45:14.281632","CLASSIFICATION_TYPE":"U","MEAN_MOTION":15.01624749,"ECCENTRICITY":0.00250492,"INCLINATION":44.9096,"RA_OF_ASC_NODE":24.0781,"ARG_OF_PERICENTER":229.6716,"MEAN_ANOMALY":130.1967,"EPHEMERIS_TYPE":0,"NORAD_CAT_ID":69177,"ELEMENT_SET_NO":999,"REV_AT_EPOCH":869,"BSTAR":0.00015111071,"MEAN_MOTION_DOT":0.00001769,"MEAN_MOTION_DDOT":0},{"OBJECT_NAME":"STRIX-8","OBJECT_ID":"2026-146A","EPOCH":"2026-07-19T06:26:50.486496","CLASSIFICATION_TYPE":"U","MEAN_MOTION":15.04454253,"ECCENTRICITY":0.00066167,"INCLINATION":41.9907,"RA_OF_ASC_NODE":350.5278,"ARG_OF_PERICENTER":51.969,"MEAN_ANOMALY":308.1734,"EPHEMERIS_TYPE":0,"NORAD_CAT_ID":69701,"ELEMENT_SET_NO":999,"REV_AT_EPOCH":339,"BSTAR":0.00017232409,"MEAN_MOTION_DOT":0.00002261,"MEAN_MOTION_DDOT":0}]}
